[{"OBJECT_NAME":"STARLINK-34851","OBJECT_ID":"2025-259AB","EPOCH":"2026-03-09T22:23:45.640032","MEAN_MOTION":15.27600809,"ECCENTRICITY":0.00018606,"INCLINATION":43.0025,"RA_OF_ASC_NODE":273.3864,"ARG_OF_PERICENTER":268.9338,"MEAN_ANOMALY":91.13,"EPHEMERIS_TYPE":0,"CLASSIFICATION_TYPE":"U","NORAD_CAT_ID":66447,"ELEMENT_SET_NO":999,"REV_AT_EPOCH":1941,"BSTAR":0.00088989614,"MEAN_MOTION_DOT":0.00024322,"MEAN_MOTION_DDOT":0},{"OBJECT_NAME":"OBJECT F","OBJECT_ID":"2026-023F","EPOCH":"2026-03-09T17:11:01.401216","MEAN_MOTION":15.23264948,"ECCENTRICITY":0.00223432,"INCLINATION":96.6318,"RA_OF_ASC_NODE":144.1544,"ARG_OF_PERICENTER":121.6413,"MEAN_ANOMALY":238.701,"EPHEMERIS_TYPE":0,"CLASSIFICATION_TYPE":"U","NORAD_CAT_ID":67679,"ELEMENT_SET_NO":999,"REV_AT_EPOCH":484,"BSTAR":0.00053756888,"MEAN_MOTION_DOT":0.00012778,"MEAN_MOTION_DDOT":0}]
